[{"OBJECT_NAME":"MANDRAKE 2 BAKER","OBJECT_ID":"2021-059AF","EPOCH":"2026-03-09T11:46:50.097504","MEAN_MOTION":15.543506,"ECCENTRICITY":0.00037264,"INCLINATION":97.7034,"RA_OF_ASC_NODE":253.2235,"ARG_OF_PERICENTER":1.3892,"MEAN_ANOMALY":358.7371,"EPHEMERIS_TYPE":0,"CLASSIFICATION_TYPE":"U","NORAD_CAT_ID":48908,"ELEMENT_SET_NO":999,"REV_AT_EPOCH":26178,"BSTAR":0.00042709864,"MEAN_MOTION_DOT":0.00027921,"MEAN_MOTION_DDOT":0},{"OBJECT_NAME":"STARLINK-32262","OBJECT_ID":"2024-155Q","EPOCH":"2026-03-09T22:00:01.999584","MEAN_MOTION":15.517344,"ECCENTRICITY":0.00087368,"INCLINATION":53.1515,"RA_OF_ASC_NODE":110.6571,"ARG_OF_PERICENTER":9.9972,"MEAN_ANOMALY":355.7695,"EPHEMERIS_TYPE":0,"CLASSIFICATION_TYPE":"U","NORAD_CAT_ID":60938,"ELEMENT_SET_NO":999,"REV_AT_EPOCH":584,"BSTAR":0.0047689737,"MEAN_MOTION_DOT":0.00300228,"MEAN_MOTION_DDOT":0}]
